[{"OBJECT_NAME":"TIANMU-1 09","OBJECT_ID":"2023-101C","EPOCH":"2026-03-09T22:17:34.703232","MEAN_MOTION":15.29080822,"ECCENTRICITY":0.00049013,"INCLINATION":97.267,"RA_OF_ASC_NODE":121.1263,"ARG_OF_PERICENTER":139.4293,"MEAN_ANOMALY":220.7314,"EPHEMERIS_TYPE":0,"CLASSIFICATION_TYPE":"U","NORAD_CAT_ID":57401,"ELEMENT_SET_NO":999,"REV_AT_EPOCH":14647,"BSTAR":0.00030540035,"MEAN_MOTION_DOT":8.553e-5,"MEAN_MOTION_DDOT":0},{"OBJECT_NAME":"STARLINK-34552","OBJECT_ID":"2025-144H","EPOCH":"2026-03-09T14:48:10.593792","MEAN_MOTION":15.30186444,"ECCENTRICITY":0.0001213,"INCLINATION":53.1592,"RA_OF_ASC_NODE":181.1704,"ARG_OF_PERICENTER":73.7979,"MEAN_ANOMALY":286.3155,"EPHEMERIS_TYPE":0,"CLASSIFICATION_TYPE":"U","NORAD_CAT_ID":64731,"ELEMENT_SET_NO":999,"REV_AT_EPOCH":3970,"BSTAR":0.0012103,"MEAN_MOTION_DOT":0.00035644,"MEAN_MOTION_DDOT":0}]
